QIANFAN-97              
1 66039U 25233G   25318.26858715  .00001171  00000+0  51224-3 0  9996
2 66039  88.9960  65.3088 0016652 126.2493 234.0241 14.23075716  3985
QIANFAN-98              
1 66040U 25233H   25318.26574825  .00001416  00000+0  58446-3 0  9990
2 66040  88.9957  65.3083 0016047 125.5771 234.6921 14.26206821  3984
QIANFAN-99              
1 66041U 25233J   25318.26844693  .00001153  00000+0  50703-3 0  9990
2 66041  88.9960  65.3092 0016085 123.6269 236.6460 14.22835351  3984
QIANFAN-100             
1 66042U 25233K   25317.98470075  .00001645  00000+0  67953-3 0  9999
2 66042  88.9959  65.3408 0016572 126.9807 233.2907 14.26237845  3942
QIANFAN-101             
1 66043U 25233L   25318.26017002  .00000720  00000+0  29169-3 0  9999
2 66043  88.9960  65.3078 0016619 124.3191 235.9579 14.26647028  3984
QIANFAN-102             
1 66044U 25233M   25317.98528316  .00001584  00000+0  68071-3 0  9997
2 66044  88.9975  65.3499 0015821 123.2828 236.9882 14.24181342  3941
QIANFAN-103             
1 66045U 25233N   25318.26762552  .00001044  00000+0  45958-3 0  9992
2 66045  88.9959  65.3090 0016433 123.9796 236.2960 14.22710577  3982
QIANFAN-104             
1 66046U 25233P   25317.98451489  .00001566  00000+0  67297-3 0  9994
2 66046  88.9961  65.3405 0016429 128.1052 232.1625 14.24171357  3941
